GLOBALSTAR M024 [-]     
1 25883U 99043A   23252.62338153 -.00000078  00000+0 -48486-3 0  9995
2 25883  52.0037  39.4699 0002091 107.4165 336.6002 11.10151301 43057
GLOBALSTAR M027 [-]     
1 25884U 99043B   23252.33044205 -.00000096  00000+0 -12308-2 0  9999
2 25884  52.0196  99.7972 0021888  27.9943 332.2023 11.04365960 69775
GLOBALSTAR M054 [-]     
1 25885U 99043C   23252.55809024 -.00000058  00000+0  34150-3 0  9999
2 25885  52.0172 335.1000 0004893 131.2404 332.9648 11.39205799 45356
GLOBALSTAR M053 [-]     
1 25886U 99043D   23252.25774634 -.00000041  00000+0  80643-3 0  9995
2 25886  51.9948 247.0265 0003414  62.0174  31.1390 11.27650638 46461
GLOBALSTAR M058 [-]     
1 25907U 99049A   23252.59208245 -.00000063  00000+0  28258-3 0  9990
2 25907  51.9963  35.6985 0002972 100.3799 259.7371 11.93165951464350
GLOBALSTAR M050 [-]     
1 25908U 99049B   23252.29775694 -.00000058  00000+0  34051-3 0  9997
2 25908  51.9979  92.4891 0008744 177.6880 352.5524 12.07421513 70042
GLOBALSTAR M033 [-]     
1 25909U 99049C   23252.58496000 -.00000056  00000+0  33960-3 0  9997
2 25909  51.9943   8.1944 0011816  30.8411 329.3129 12.20261772456800
GLOBALSTAR M055 [-]     
1 25910U 99049D   23252.58174690 -.00000076  00000+0  15578-3 0  9994
2 25910  52.0031  50.4135 0006374 224.1612 135.8731 12.29385984 88753
